{"type": "FeatureCollection", "features": [ {"type": "Feature", "properties": {"norad_id": 33492, "name": "GOSAT (IBUKI)", "group": "resource", "lat": -9.22194020641957, "lon": 89.72661758738137, "alt_km": 673.0566340643063, "timestamp": "2025-12-05T16:54:14.326536+00:00", "meta": {"OBJECT_NAME": "GOSAT (IBUKI)", "OBJECT_ID": "2009-002A", "EPOCH": "2025-12-05T07:07:41.394432", "MEAN_MOTION": 14.67549486, "ECCENTRICITY": 9.599e-05, "INCLINATION": 98.0771, "RA_OF_ASC_NODE": 88.0039, "ARG_OF_PERICENTER": 85.5947, "MEAN_ANOMALY": 274.5368, "EPHEMERIS_TYPE": 0, "CLASSIFICATION_TYPE": "U", "NORAD_CAT_ID": 33492, "ELEMENT_SET_NO": 999, "REV_AT_EPOCH": 90302, "BSTAR": 0.00031598273, "MEAN_MOTION_DOT": 1.745e-05, "MEAN_MOTION_DDOT": 0}, "tle": {"line1": "1 33492U 09002A   25339.29700688  .00001745  00000+0  31598-3 0  9999", "line2": "2 33492  98.0771  88.0039 0000959  85.5947 274.5368 14.67549486903027"}}, "geometry": {"type": "Point", "coordinates": [89.72661758738137, -9.22194020641957]}}, {"type": "Feature", "properties": {"norad_id": 35681, "name": "DEIMOS-1", "group": "resource", "lat": -60.79768335625174, "lon": -53.40017968347929, "alt_km": 654.1480968792966, "timestamp": "2025-12-05T16:54:14.326546+00:00", "meta": {"OBJECT_NAME": "DEIMOS-1", "OBJECT_ID": "2009-041A", "EPOCH": "2025-12-05T07:40:14.681568", "MEAN_MOTION": 14.74934848, "ECCENTRICITY": 0.000269, "INCLINATION": 97.7146, "RA_OF_ASC_NODE": 140.2688, "ARG_OF_PERICENTER": 93.6149, "MEAN_ANOMALY": 266.5368, "EPHEMERIS_TYPE": 0, "CLASSIFICATION_TYPE": "U", "NORAD_CAT_ID": 35681, "ELEMENT_SET_NO": 999, "REV_AT_EPOCH": 87830, "BSTAR": 0.00020068529, "MEAN_MOTION_DOT": 1.301e-05, "MEAN_MOTION_DDOT": 0}, "tle": {"line1": "1 35681U 09041A   25339.31961437  .00001301  00000+0  20069-3 0  9997", "line2": "2 35681  97.7146 140.2688 0002690  93.6149 266.5368 14.74934848878301"}}, "geometry": {"type": "Point", "coordinates": [-53.40017968347929, -60.79768335625174]}}, {"type": "Feature", "properties": {"norad_id": 35682, "name": "DUBAISAT-1", "group": "resource", "lat": -5.39463921332502, "lon": -70.27093108318246, "alt_km": 656.4783698622687, "timestamp": "2025-12-05T16:54:14.326556+00:00", "meta": {"OBJECT_NAME": "DUBAISAT-1", "OBJECT_ID": "2009-041B", "EPOCH": "2025-12-05T07:55:22.261728", "MEAN_MOTION": 14.74570115, "ECCENTRICITY": 0.00099937, "INCLINATION": 97.9785, "RA_OF_ASC_NODE": 110.1194, "ARG_OF_PERICENTER": 340.0066, "MEAN_ANOMALY": 20.075, "EPHEMERIS_TYPE": 0, "CLASSIFICATION_TYPE": "U", "NORAD_CAT_ID": 35682, "ELEMENT_SET_NO": 999, "REV_AT_EPOCH": 87652, "BSTAR": 0.00039996235, "MEAN_MOTION_DOT": 2.615e-05, "MEAN_MOTION_DDOT": 0}, "tle": {"line1": "1 35682U 09041B   25339.33011877  .00002615  00000+0  39996-3 0  9992", "line2": "2 35682  97.9785 110.1194 0009993 340.0066  20.0750 14.74570115876524"}}, "geometry": {"type": "Point", "coordinates": [-70.27093108318246, -5.39463921332502]}}, {"type": "Feature", "properties": {"norad_id": 35931, "name": "OCEANSAT-2", "group": "resource", "lat": 77.85402486711445, "lon": -156.7699886751731, "alt_km": 878.0267020954852, "timestamp": "2025-12-05T16:54:14.326566+00:00", "meta": {"OBJECT_NAME": "OCEANSAT-2", "OBJECT_ID": "2009-051A", "EPOCH": "2025-12-05T06:08:24.244224", "MEAN_MOTION": 13.9962634, "ECCENTRICITY": 0.00165099, "INCLINATION": 98.2229, "RA_OF_ASC_NODE": 340.6154, "ARG_OF_PERICENTER": 64.5301, "MEAN_ANOMALY": 295.7571, "EPHEMERIS_TYPE": 0, "CLASSIFICATION_TYPE": "U", "NORAD_CAT_ID": 35931, "ELEMENT_SET_NO": 999, "REV_AT_EPOCH": 85220, "BSTAR": -7.1622548e-05, "MEAN_MOTION_DOT": -1.42e-06, "MEAN_MOTION_DDOT": 0}, "tle": {"line1": "1 35931U 09051A   25339.25583616 -.00000142  00000+0 -71623-4 0  9995", "line2": "2 35931  98.2229 340.6154 0016509  64.5301 295.7571 13.99626340852204"}}, "geometry": {"type": "Point", "coordinates": [-156.7699886751731, 77.85402486711445]}}, {"type": "Feature", "properties": {"norad_id": 35946, "name": "WORLDVIEW-2 (WV-2)", "group": "resource", "lat": -21.978217744094593, "lon": 54.337505019521195, "alt_km": 772.6393995765957, "timestamp": "2025-12-05T16:54:14.326575+00:00", "meta": {"OBJECT_NAME": "WORLDVIEW-2 (WV-2)", "OBJECT_ID": "2009-055A", "EPOCH": "2025-12-05T06:59:06.116928", "MEAN_MOTION": 14.37647493, "ECCENTRICITY": 0.00054198, "INCLINATION": 98.4769, "RA_OF_ASC_NODE": 50.4794, "ARG_OF_PERICENTER": 84.7742, "MEAN_ANOMALY": 275.4064, "EPHEMERIS_TYPE": 0, "CLASSIFICATION_TYPE": "U", "NORAD_CAT_ID": 35946, "ELEMENT_SET_NO": 999, "REV_AT_EPOCH": 84778, "BSTAR": 0.00014394895, "MEAN_MOTION_DOT": 3.89e-06, "MEAN_MOTION_DDOT": 0}, "tle": {"line1": "1 35946U 09055A   25339.29104302  .00000389  00000+0  14395-3 0  9993", "line2": "2 35946  98.4769  50.4794 0005419  84.7742 275.4064 14.37647493847782"}}, "geometry": {"type": "Point", "coordinates": [54.337505019521195, -21.978217744094593]}}, {"type": "Feature", "properties": {"norad_id": 36036, "name": "SMOS", "group": "resource", "lat": -38.566574067090826, "lon": 171.65413871286708, "alt_km": 765.8347349942896, "timestamp": "2025-12-05T16:54:14.326584+00:00", "meta": {"OBJECT_NAME": "SMOS", "OBJECT_ID": "2009-059A", "EPOCH": "2025-12-05T00:24:22.906656", "MEAN_MOTION": 14.39791838, "ECCENTRICITY": 0.0001007, "INCLINATION": 98.4384, "RA_OF_ASC_NODE": 164.1795, "ARG_OF_PERICENTER": 72.0682, "MEAN_ANOMALY": 288.0616, "EPHEMERIS_TYPE": 0, "CLASSIFICATION_TYPE": "U", "NORAD_CAT_ID": 36036, "ELEMENT_SET_NO": 999, "REV_AT_EPOCH": 84551, "BSTAR": 0.00026241046, "MEAN_MOTION_DOT": 7.79e-06, "MEAN_MOTION_DDOT": 0}, "tle": {"line1": "1 36036U 09059A   25339.01693179  .00000779  00000+0  26241-3 0  9999", "line2": "2 36036  98.4384 164.1795 0001007  72.0682 288.0616 14.39791838845519"}}, "geometry": {"type": "Point", "coordinates": [171.65413871286708, -38.566574067090826]}}, {"type": "Feature", "properties": {"norad_id": 36110, "name": "YAOGAN-7", "group": "resource", "lat": -80.59858167112695, "lon": -17.01364496890722, "alt_km": 631.1558913164163, "timestamp": "2025-12-05T16:54:14.326593+00:00", "meta": {"OBJECT_NAME": "YAOGAN-7", "OBJECT_ID": "2009-069A", "EPOCH": "2025-12-05T04:19:49.035360", "MEAN_MOTION": 14.77714891, "ECCENTRICITY": 0.00236966, "INCLINATION": 98.0303, "RA_OF_ASC_NODE": 220.9642, "ARG_OF_PERICENTER": 306.8759, "MEAN_ANOMALY": 53.0279, "EPHEMERIS_TYPE": 0, "CLASSIFICATION_TYPE": "U", "NORAD_CAT_ID": 36110, "ELEMENT_SET_NO": 999, "REV_AT_EPOCH": 86097, "BSTAR": 0.0001935316, "MEAN_MOTION_DOT": 1.34e-05, "MEAN_MOTION_DDOT": 0}, "tle": {"line1": "1 36110U 09069A   25339.18042865  .00001340  00000+0  19353-3 0  9992", "line2": "2 36110  98.0303 220.9642 0023696 306.8759  53.0279 14.77714891860970"}}, "geometry": {"type": "Point", "coordinates": [-17.01364496890722, -80.59858167112695]}}, {"type": "Feature", "properties": {"norad_id": 36605, "name": "TANDEM-X", "group": "resource", "lat": -3.7185302990924542, "lon": 164.70132008448525, "alt_km": 511.9997491587292, "timestamp": "2025-12-05T16:54:14.326602+00:00", "meta": {"OBJECT_NAME": "TANDEM-X", "OBJECT_ID": "2010-030A", "EPOCH": "2025-12-04T14:48:17.883360", "MEAN_MOTION": 15.19148899, "ECCENTRICITY": 0.00018635, "INCLINATION": 97.4452, "RA_OF_ASC_NODE": 344.1166, "ARG_OF_PERICENTER": 95.4078, "MEAN_ANOMALY": 264.7369, "EPHEMERIS_TYPE": 0, "CLASSIFICATION_TYPE": "U", "NORAD_CAT_ID": 36605, "ELEMENT_SET_NO": 999, "REV_AT_EPOCH": 85710, "BSTAR": 0.00011882384, "MEAN_MOTION_DOT": 2.429e-05, "MEAN_MOTION_DDOT": 0}, "tle": {"line1": "1 36605U 10030A   25338.61687365  .00002429  00000+0  11882-3 0  9996", "line2": "2 36605  97.4452 344.1166 0001863  95.4078 264.7369 15.19148899857102"}}, "geometry": {"type": "Point", "coordinates": [164.70132008448525, -3.7185302990924542]}}, {"type": "Feature", "properties": {"norad_id": 36795, "name": "CARTOSAT-2B", "group": "resource", "lat": 13.210025052558795, "lon": -149.1964043262849, "alt_km": 631.0122237452833, "timestamp": "2025-12-05T16:54:14.326611+00:00", "meta": {"OBJECT_NAME": "CARTOSAT-2B", "OBJECT_ID": "2010-035A", "EPOCH": "2025-12-05T06:24:38.686752", "MEAN_MOTION": 14.78771548, "ECCENTRICITY": 0.0012898, "INCLINATION": 97.7864, "RA_OF_ASC_NODE": 28.5399, "ARG_OF_PERICENTER": 99.5549, "MEAN_ANOMALY": 260.712, "EPHEMERIS_TYPE": 0, "CLASSIFICATION_TYPE": "U", "NORAD_CAT_ID": 36795, "ELEMENT_SET_NO": 999, "REV_AT_EPOCH": 83119, "BSTAR": 0.00021079409, "MEAN_MOTION_DOT": 1.501e-05, "MEAN_MOTION_DDOT": 0}, "tle": {"line1": "1 36795U 10035A   25339.26711443  .00001501  00000+0  21079-3 0  9997", "line2": "2 36795  97.7864  28.5399 0012898  99.5549 260.7120 14.78771548831190"}}, "geometry": {"type": "Point", "coordinates": [-149.1964043262849, 13.210025052558795]}}, {"type": "Feature", "properties": {"norad_id": 36834, "name": "YAOGAN-10", "group": "resource", "lat": 77.73999043450202, "lon": -140.61808040182825, "alt_km": 606.6360393307086, "timestamp": "2025-12-05T16:54:14.326620+00:00", "meta": {"OBJECT_NAME": "YAOGAN-10", "OBJECT_ID": "2010-038A", "EPOCH": "2025-12-05T08:25:03.073728", "MEAN_MOTION": 14.84563889, "ECCENTRICITY": 0.00015191, "INCLINATION": 97.9143, "RA_OF_ASC_NODE": 359.2271, "ARG_OF_PERICENTER": 85.3891, "MEAN_ANOMALY": 285.3275, "EPHEMERIS_TYPE": 0, "CLASSIFICATION_TYPE": "U", "NORAD_CAT_ID": 36834, "ELEMENT_SET_NO": 999, "REV_AT_EPOCH": 82844, "BSTAR": 0.00039292069, "MEAN_MOTION_DOT": 3.263e-05, "MEAN_MOTION_DDOT": 0}, "tle": {"line1": "1 36834U 10038A   25339.35073002  .00003263  00000+0  39292-3 0  9999", "line2": "2 36834  97.9143 359.2271 0001519  85.3891 285.3275 14.84563889828442"}}, "geometry": {"type": "Point", "coordinates": [-140.61808040182825, 77.73999043450202]}}]}